     3.02           N: GNSS NAV DATA    G: GPS              RINEX VERSION / TYPE
GINS decoder        mpst                20171205 02:21:53UTCPGM / RUN BY / DATE 
                                                            END OF HEADER       
G02 2017 11 07 06 00 00 2.871770411730D-04-9.549694368616D-12 0.000000000000D+00
     5.100000000000D+01-2.668750000000D+01 4.758769650429D-09-8.047179979061D-01
    -1.307576894760D-06 1.722284499556D-02 1.076608896255D-05 5.153619953156D+03
     1.944000000000D+05-8.568167686462D-08 8.281432545306D-01 3.091990947723D-07
     9.480158708377D-01 1.708437500000D+02-1.941863094027D+00-8.312489105680D-09
     3.150131215609D-10 0.000000000000D+00 1.974000000000D+03 0.000000000000D+00
     0.000000000000D+00 0.000000000000D+00-2.048909664154D-08 5.100000000000D+01
     1.944220000000D+05 0.000000000000D+00
G21 2017 11 07 06 00 00-4.643830470741D-04 3.410605131648D-12 0.000000000000D+00
     1.400000000000D+01-3.662500000000D+01 4.525545649999D-09-2.908006423123D+00
    -1.976266503334D-06 2.403519768268D-02 1.187250018120D-05 5.153578601837D+03
     1.944000000000D+05 2.719461917877D-07 8.363837155389D-01 2.235174179077D-08
     9.414610250021D-01 1.320625000000D+02-1.627244080036D+00-7.544599977158D-09
     4.521616914922D-10 0.000000000000D+00 1.974000000000D+03 0.000000000000D+00
     0.000000000000D+00 0.000000000000D+00-9.778887033463D-09 1.400000000000D+01
     1.944220000000D+05 0.000000000000D+00
G05 2017 11 07 05 59 44-2.352800220251D-05 1.250555214938D-12 0.000000000000D+00
     8.000000000000D+00 1.300000000000D+01 5.238789645188D-09 1.708546101929D+00
     6.910413503647D-07 5.276750307530D-03 6.064772605896D-06 5.153577985764D+03
     1.943840000000D+05-1.024454832077D-07 1.908914531827D+00 3.539025783539D-08
     9.468271694378D-01 2.589687500000D+02 6.197963298278D-01-8.406778747507D-09
     1.578637185147D-10 0.000000000000D+00 1.974000000000D+03 0.000000000000D+00
     0.000000000000D+00 0.000000000000D+00-1.071020960808D-08 8.000000000000D+00
     1.944220000000D+05 0.000000000000D+00
G15 2017 11 07 06 00 00-3.570532426238D-04-1.136868377216D-13 0.000000000000D+00
     1.000000000000D+01-1.521875000000D+01 5.343794019042D-09 1.313017866864D-01
    -6.910413503647D-07 9.872427675873D-03 8.452683687210D-06 5.153639995575D+03
     1.944000000000D+05 2.235174179077D-08 2.897386201091D+00 1.434236764908D-07
     9.290259916501D-01 1.987812500000D+02 6.289510853773D-01-8.533569743147D-09
    -5.228789228631D-10 0.000000000000D+00 1.974000000000D+03 0.000000000000D+00
     0.000000000000D+00 0.000000000000D+00-1.071020960808D-08 1.000000000000D+01
     1.944220000000D+05 0.000000000000D+00
G13 2017 11 07 06 00 00-9.365286678076D-05-3.410605131648D-13 0.000000000000D+00
     4.900000000000D+01-1.250000000000D-01 4.281249759808D-09-5.643109104317D-01
    -3.725290298462D-08 3.591185435653D-03 1.022405922413D-05 5.153660947800D+03
     1.944000000000D+05-6.705522537231D-08 3.091630041064D+00 1.303851604462D-08
     9.694592348056D-01 1.883125000000D+02 1.692371370129D+00-7.888900032923D-09
    -4.864488339751D-10 0.000000000000D+00 1.974000000000D+03 0.000000000000D+00
     0.000000000000D+00 0.000000000000D+00-1.164153218269D-08 4.900000000000D+01
     1.944220000000D+05 0.000000000000D+00
G20 2017 11 07 06 00 00 4.920288920403D-04 1.136868377216D-12 0.000000000000D+00
     5.500000000000D+01 2.153125000000D+01 5.625591471323D-09-6.176417455436D-02
     1.279637217522D-06 4.642636980861D-03 5.934387445450D-06 5.153742893219D+03
     1.944000000000D+05-1.415610313416D-07 1.825210571072D+00-2.421438694000D-08
     9.270791490478D-01 2.498750000000D+02 1.706367186391D+00-8.622502018962D-09
     2.632252501025D-10 0.000000000000D+00 1.974000000000D+03 0.000000000000D+00
     0.000000000000D+00 0.000000000000D+00-8.381903171539D-09 5.500000000000D+01
     1.944400000000D+05 0.000000000000D+00
G24 2017 11 07 06 00 00-4.192348569632D-05-4.547473508865D-13 0.000000000000D+00
     2.200000000000D+01 1.039375000000D+02 4.693409785071D-09-9.296134000724D-01
     5.435198545456D-06 6.212460808456D-03 9.316951036453D-06 5.153676462173D+03
     1.944000000000D+05 1.732259988785D-07-2.298497167919D+00 1.490116119385D-08
     9.438143159861D-01 1.914375000000D+02 4.746715662617D-01-8.172126116141D-09
     5.750239520557D-11 0.000000000000D+00 1.974000000000D+03 0.000000000000D+00
     0.000000000000D+00 0.000000000000D+00 2.793967723846D-09 2.200000000000D+01
     1.944520000000D+05 0.000000000000D+00
G29 2017 11 07 06 00 00 5.414397455752D-04-4.888534022029D-12 0.000000000000D+00
     3.000000000000D+00-1.278437500000D+02 3.962307903171D-09 2.190224419661D+00
    -6.800517439842D-06 4.520924994722D-04 7.510185241699D-06 5.153783660889D+03
     1.944000000000D+05-5.960464477539D-08-1.082438453849D-01 1.862645149231D-09
     9.828391640191D-01 2.438750000000D+02 9.987428492828D-01-7.846755420288D-09
    -3.021554431299D-10 0.000000000000D+00 1.974000000000D+03 0.000000000000D+00
     0.000000000000D+00 0.000000000000D+00-1.024454832077D-08 3.000000000000D+00
     1.944520000000D+05 0.000000000000D+00
G18 2017 11 07 06 00 00 6.323982961476D-04 4.547473508865D-13 0.000000000000D+00
     4.700000000000D+01 1.496875000000D+01 5.546302454331D-09 2.465642953526D+00
     6.407499313354D-07 1.816231512930D-02 5.073845386505D-06 5.153626337051D+03
     1.944000000000D+05 2.067536115646D-07 1.876346299069D+00-1.247972249985D-07
     9.256975970091D-01 2.583125000000D+02-1.773280143550D+00-8.249986502195D-09
     2.021512775550D-10 0.000000000000D+00 1.974000000000D+03 0.000000000000D+00
     0.000000000000D+00 0.000000000000D+00-1.117587089539D-08 4.700000000000D+01
     1.944520000000D+05 0.000000000000D+00
G02 2017 11 07 08 00 00 2.871081233025D-04-9.549694368616D-12 0.000000000000D+00
     5.200000000000D+01-4.253125000000D+01 4.840915929294D-09 2.454513109352D-01
    -2.121552824974D-06 1.722080004402D-02 1.078099012375D-05 5.153615720749D+03
     2.016000000000D+05-2.104789018631D-07 8.280832441681D-01 1.452863216400D-07
     9.480180403452D-01 1.715937500000D+02-1.941815045945D+00-8.338561620276D-09
     2.646538810393D-10 0.000000000000D+00 1.974000000000D+03 0.000000000000D+00
     0.000000000000D+00 0.000000000000D+00-2.048909664154D-08 5.200000000000D+01
     2.015860000000D+05 0.000000000000D+00
G20 2017 11 07 08 00 00 4.920368082821D-04 1.136868377216D-12 0.000000000000D+00
     5.600000000000D+01 1.356250000000D+01 5.684522497465D-09 9.882722969366D-01
     5.569308996201D-07 4.643793334253D-03 6.262212991714D-06 5.153745294571D+03
     2.016000000000D+05-4.284083843231D-08 1.825148651602D+00-9.126961231232D-08
     9.270806514646D-01 2.457812500000D+02 1.706476535129D+00-8.645360113950D-09
     1.996511734156D-10 0.000000000000D+00 1.974000000000D+03 0.000000000000D+00
     0.000000000000D+00 0.000000000000D+00-8.381903171539D-09 5.600000000000D+01
     2.015860000000D+05 0.000000000000D+00
G21 2017 11 07 08 00 00-4.643583670259D-04 3.410605131648D-12 0.000000000000D+00
     1.500000000000D+01-2.328125000000D+01 4.700910097489D-09-1.857801786273D+00
    -1.115724444389D-06 2.403738792054D-02 1.116469502449D-05 5.153574562073D+03
     2.016000000000D+05 4.023313522339D-07 8.363300440004D-01 3.986060619354D-07
     9.414631813433D-01 1.478750000000D+02-1.627207527565D+00-7.791395971488D-09
     3.114415442190D-10 0.000000000000D+00 1.974000000000D+03 0.000000000000D+00
     0.000000000000D+00 0.000000000000D+00-9.778887033463D-09 1.500000000000D+01
     2.015860000000D+05 0.000000000000D+00
G05 2017 11 07 08 00 00-2.351915463805D-05 1.250555214938D-12 0.000000000000D+00
     9.000000000000D+00 1.284375000000D+01 5.209145553250D-09 2.761171841867D+00
     5.848705768585D-07 5.277127958834D-03 6.133690476418D-06 5.153577177048D+03
     2.016000000000D+05-1.490116119385D-08 1.908854100144D+00-8.195638656616D-08
     9.468290463617D-01 2.552812500000D+02 6.197491916814D-01-8.269273019842D-09
     1.932223342001D-10 0.000000000000D+00 1.974000000000D+03 0.000000000000D+00
     0.000000000000D+00 0.000000000000D+00-1.071020960808D-08 9.000000000000D+00
     2.015860000000D+05 0.000000000000D+00
G15 2017 11 07 08 00 00-3.570541739464D-04-1.136868377216D-13 0.000000000000D+00
     1.100000000000D+01-1.740625000000D+01 5.369509375904D-09 1.181522470285D+00
    -7.282942533493D-07 9.872131864540D-03 8.571892976761D-06 5.153639400482D+03
     2.016000000000D+05-1.173466444016D-07 2.897325710891D+00 4.470348358154D-08
     9.290218545178D-01 2.000312500000D+02 6.289377538048D-01-8.479281767549D-09
    -6.543129690472D-10 0.000000000000D+00 1.974000000000D+03 0.000000000000D+00
     0.000000000000D+00 0.000000000000D+00-1.071020960808D-08 1.100000000000D+01
     2.015860000000D+05 0.000000000000D+00
G13 2017 11 07 08 00 00-9.365566074848D-05-3.410605131648D-13 0.000000000000D+00
     5.600000000000D+01 3.125000000000D-01 4.291964491834D-09 4.858676879394D-01
    -2.980232238770D-08 3.590662381612D-03 9.989365935326D-06 5.153659944534D+03
     2.016000000000D+05-2.980232238770D-08 3.091573647035D+00-8.568167686462D-08
     9.694554165894D-01 1.918750000000D+02 1.692379847739D+00-7.900686238152D-09
    -5.707380592453D-10 0.000000000000D+00 1.974000000000D+03 0.000000000000D+00
     0.000000000000D+00 0.000000000000D+00-1.164153218269D-08 5.600000000000D+01
     2.015860000000D+05 0.000000000000D+00
G18 2017 11 07 08 00 00 6.324020214379D-04 4.547473508865D-13 0.000000000000D+00
     4.800000000000D+01 2.087500000000D+01 5.568803391585D-09-2.767337623177D+00
     1.102685928345D-06 1.816115865950D-02 5.541369318962D-06 5.153628515244D+03
     2.016000000000D+05 2.309679985046D-07 1.876286620789D+00-3.725290298462D-09
     9.256991477023D-01 2.523125000000D+02-1.773268078865D+00-8.251772290866D-09
     2.667968274445D-10 0.000000000000D+00 1.974000000000D+03 0.000000000000D+00
     0.000000000000D+00 0.000000000000D+00-1.117587089539D-08 4.800000000000D+01
     2.016160000000D+05 0.000000000000D+00
G24 2017 11 07 08 00 00-4.192674532533D-05-4.547473508865D-13 0.000000000000D+00
     5.300000000000D+01 9.746875000000D+01 4.752697968947D-09 1.205410850200D-01
     5.161389708519D-06 6.211172207259D-03 9.782612323761D-06 5.153674100876D+03
     2.016000000000D+05 9.872019290924D-08-2.298556230310D+00 9.499490261078D-08
     9.438144183903D-01 1.831875000000D+02 4.746979894881D-01-8.227485564941D-09
     3.893019302737D-11 0.000000000000D+00 1.974000000000D+03 0.000000000000D+00
     0.000000000000D+00 0.000000000000D+00 2.793967723846D-09 5.300000000000D+01
     2.016700000000D+05 0.000000000000D+00
G29 2017 11 07 08 00 00 5.414043553174D-04-4.888534022029D-12 0.000000000000D+00
     5.000000000000D+00-1.185000000000D+02 4.014095774630D-09-3.045330497873D+00
    -6.141141057014D-06 4.506085533649D-04 6.912276148796D-06 5.153787080765D+03
     2.016000000000D+05 5.587935447693D-09-1.083011537378D-01-1.266598701477D-07
     9.828367838513D-01 2.547187500000D+02 1.001220969604D+00-7.953902740547D-09
    -2.321525272275D-10 0.000000000000D+00 1.974000000000D+03 0.000000000000D+00
     0.000000000000D+00 0.000000000000D+00-1.024454832077D-08 5.000000000000D+00
     2.015280000000D+05 0.000000000000D+00
